{
  "norad_id": 53557,
  "name": "STARLINK-4502",
  "history": [
    {
      "epoch": "2026-03-28T20:56:09.451104Z",
      "apogee_km": 540.7475309280144,
      "perigee_km": 538.7656927660919,
      "latitude_deg": -2.312847896398015e-05,
      "longitude_deg": -162.31614197979732,
      "height_km": 540.6673355420049,
      "semi_major_axis_km": 6917.893611847053,
      "eccentricity": 0.00014324,
      "inclination_deg": 53.2198,
      "raan_deg": 338.0098,
      "arg_perigee_deg": 90.8593,
      "mean_anomaly_deg": 269.2563,
      "mean_motion_rev_day": 15.08835674
    },
    {
      "epoch": "2026-03-29T00:06:58.577760Z",
      "apogee_km": 540.989114377242,
      "perigee_km": 538.7379969964222,
      "latitude_deg": 4.423456012067178e-05,
      "longitude_deg": 149.25400284230463,
      "height_km": 540.498591062283,
      "semi_major_axis_km": 6918.000555686832,
      "eccentricity": 0.0001627,
      "inclination_deg": 53.2197,
      "raan_deg": 337.4152,
      "arg_perigee_deg": 76.6136,
      "mean_anomaly_deg": 283.5038,
      "mean_motion_rev_day": 15.08800687
    }
  ]
}